[{"OBJECT_NAME":"STARLINK-30494","OBJECT_ID":"2023-151G","EPOCH":"2026-03-09T08:39:06.366240","MEAN_MOTION":15.28417441,"ECCENTRICITY":0.00011553,"INCLINATION":43.0027,"RA_OF_ASC_NODE":192.4566,"ARG_OF_PERICENTER":241.5536,"MEAN_ANOMALY":118.52,"EPHEMERIS_TYPE":0,"CLASSIFICATION_TYPE":"U","NORAD_CAT_ID":57970,"ELEMENT_SET_NO":999,"REV_AT_EPOCH":13740,"BSTAR":-3.569111e-5,"MEAN_MOTION_DOT":-1.272e-5,"MEAN_MOTION_DDOT":0},{"OBJECT_NAME":"STARLINK-34239","OBJECT_ID":"2025-144E","EPOCH":"2026-03-09T14:58:48.731232","MEAN_MOTION":15.30186319,"ECCENTRICITY":0.0001334,"INCLINATION":53.1602,"RA_OF_ASC_NODE":181.2192,"ARG_OF_PERICENTER":77.2019,"MEAN_ANOMALY":282.9131,"EPHEMERIS_TYPE":0,"CLASSIFICATION_TYPE":"U","NORAD_CAT_ID":64728,"ELEMENT_SET_NO":999,"REV_AT_EPOCH":3970,"BSTAR":0.0011737,"MEAN_MOTION_DOT":0.0003455,"MEAN_MOTION_DDOT":0}]
